{
    "links": {
        "self": "http://www.neowsapp.com/rest/v1/neo/3712425?api_key=iIulBulltgU6a56xZRHN4H3l9WmuAYTsLGpBGhQ2"
    },
    "id": "3712425",
    "neo_reference_id": "3712425",
    "name": "(2015 DA181)",
    "designation": "2015 DA181",
    "nasa_jpl_url": "http://ssd.jpl.nasa.gov/sbdb.cgi?sstr=3712425",
    "absolute_magnitude_h": 24.9,
    "estimated_diameter": {
        "kilometers": {
            "estimated_diameter_min": 0.0278326768,
            "estimated_diameter_max": 0.0622357573
        },
        "meters": {
            "estimated_diameter_min": 27.8326768072,
            "estimated_diameter_max": 62.2357573367
        },
        "miles": {
            "estimated_diameter_min": 0.0172944182,
            "estimated_diameter_max": 0.0386714948
        },
        "feet": {
            "estimated_diameter_min": 91.3145593761,
            "estimated_diameter_max": 204.1855621004
        }
    },
    "is_potentially_hazardous_asteroid": false,
    "close_approach_data": [
        {
            "close_approach_date": "2015-02-16",
            "close_approach_date_full": "2015-Feb-16 17:07",
            "epoch_date_close_approach": 1424106420000,
            "relative_velocity": {
                "kilometers_per_second": "5.0996102224",
                "kilometers_per_hour": "18358.5968008044",
                "miles_per_hour": "11407.3181065887"
            },
            "miss_distance": {
                "astronomical": "0.1443568993",
                "lunar": "56.1548338277",
                "kilometers": "21595484.655084491",
                "miles": "13418811.9260923358"
            },
            "orbiting_body": "Earth"
        }
    ],
    "orbital_data": {
        "orbit_id": "7",
        "orbit_determination_date": "2017-04-06 08:35:26",
        "first_observation_date": "2015-02-17",
        "last_observation_date": "2015-03-18",
        "data_arc_in_days": 29,
        "observations_used": 16,
        "orbit_uncertainty": "7",
        "minimum_orbit_intersection": ".141347",
        "jupiter_tisserand_invariant": "3.708",
        "epoch_osculation": "2459000.5",
        "eccentricity": ".4388071027405438",
        "semi_major_axis": "2.000628583075161",
        "inclination": "6.343626049335796",
        "ascending_node_longitude": "343.6854970140061",
        "orbital_period": "1033.589600061856",
        "perihelion_distance": "1.12273855087603",
        "perihelion_argument": "156.2516068335119",
        "aphelion_distance": "2.878518615274292",
        "perihelion_time": "2459131.694892998056",
        "mean_anomaly": "314.3047245478538",
        "mean_motion": ".3483007181752367",
        "equinox": "J2000",
        "orbit_class": {
            "orbit_class_type": "AMO",
            "orbit_class_description": "Near-Earth asteroid orbits similar to that of 1221 Amor",
            "orbit_class_range": "1.017 AU < q (perihelion) < 1.3 AU"
        }
    },
    "is_sentry_object": false
}